{"type": "FeatureCollection", "features": [ {"type": "Feature", "properties": {"norad_id": 43622, "name": "BEIDOU-3 M13 (C32)", "group": "beidou", "lat": 26.81293978737882, "lon": 88.15815221334404, "alt_km": 21525.96972825839, "timestamp": "2025-12-19T16:54:44.526619+00:00", "meta": {"OBJECT_NAME": "BEIDOU-3 M13 (C32)", "OBJECT_ID": "2018-072A", "EPOCH": "2025-12-19T02:51:12.147840", "MEAN_MOTION": 1.86231103, "ECCENTRICITY": 0.00060832, "INCLINATION": 56.4647, "RA_OF_ASC_NODE": 68.6089, "ARG_OF_PERICENTER": 298.8589, "MEAN_ANOMALY": 61.1145, "EPHEMERIS_TYPE": 0, "CLASSIFICATION_TYPE": "U", "NORAD_CAT_ID": 43622, "ELEMENT_SET_NO": 999, "REV_AT_EPOCH": 4930, "BSTAR": 0, "MEAN_MOTION_DOT": -5.6e-07, "MEAN_MOTION_DDOT": 0}, "tle": {"line1": "1 43622U 18072A   25353.11889060 -.00000056  00000+0  00000+0 0  9996", "line2": "2 43622  56.4647  68.6089 0006083 298.8589  61.1145  1.86231103 49303"}}, "geometry": {"type": "Point", "coordinates": [88.15815221334404, 26.81293978737882]}}, {"type": "Feature", "properties": {"norad_id": 43623, "name": "BEIDOU-3 M14 (C33)", "group": "beidou", "lat": 44.3858282793326, "lon": -151.7959209342439, "alt_km": 21531.053473989185, "timestamp": "2025-12-19T16:54:44.526630+00:00", "meta": {"OBJECT_NAME": "BEIDOU-3 M14 (C33)", "OBJECT_ID": "2018-072B", "EPOCH": "2025-12-18T10:44:15.262368", "MEAN_MOTION": 1.8623104, "ECCENTRICITY": 0.00033898, "INCLINATION": 56.4661, "RA_OF_ASC_NODE": 68.625, "ARG_OF_PERICENTER": 331.3053, "MEAN_ANOMALY": 28.7068, "EPHEMERIS_TYPE": 0, "CLASSIFICATION_TYPE": "U", "NORAD_CAT_ID": 43623, "ELEMENT_SET_NO": 999, "REV_AT_EPOCH": 4928, "BSTAR": 0, "MEAN_MOTION_DOT": -6.3e-07, "MEAN_MOTION_DDOT": 0}, "tle": {"line1": "1 43623U 18072B   25352.44739887 -.00000063  00000+0  00000+0 0  9991", "line2": "2 43623  56.4661  68.6250 0003389 331.3053  28.7068  1.86231040 49285"}}, "geometry": {"type": "Point", "coordinates": [-151.7959209342439, 44.3858282793326]}}, {"type": "Feature", "properties": {"norad_id": 43647, "name": "BEIDOU-3 M16 (C35)", "group": "beidou", "lat": 13.903809951683401, "lon": -43.486561346673575, "alt_km": 21505.9241344841, "timestamp": "2025-12-19T16:54:44.526642+00:00", "meta": {"OBJECT_NAME": "BEIDOU-3 M16 (C35)", "OBJECT_ID": "2018-078A", "EPOCH": "2025-12-18T14:31:23.928384", "MEAN_MOTION": 1.86232416, "ECCENTRICITY": 0.00073312, "INCLINATION": 54.2565, "RA_OF_ASC_NODE": 306.3163, "ARG_OF_PERICENTER": 19.8035, "MEAN_ANOMALY": 340.2135, "EPHEMERIS_TYPE": 0, "CLASSIFICATION_TYPE": "U", "NORAD_CAT_ID": 43647, "ELEMENT_SET_NO": 999, "REV_AT_EPOCH": 4879, "BSTAR": 0, "MEAN_MOTION_DOT": -8.1e-07, "MEAN_MOTION_DDOT": 0}, "tle": {"line1": "1 43647U 18078A   25352.60513806 -.00000081  00000+0  00000+0 0  9992", "line2": "2 43647  54.2565 306.3163 0007331  19.8035 340.2135  1.86232416 48794"}}, "geometry": {"type": "Point", "coordinates": [-43.486561346673575, 13.903809951683401]}}, {"type": "Feature", "properties": {"norad_id": 43648, "name": "BEIDOU-3 M15 (C34)", "group": "beidou", "lat": -49.471015693062924, "lon": -111.06864597138944, "alt_km": 21533.3401305187, "timestamp": "2025-12-19T16:54:44.526653+00:00", "meta": {"OBJECT_NAME": "BEIDOU-3 M15 (C34)", "OBJECT_ID": "2018-078B", "EPOCH": "2025-12-18T04:44:16.550592", "MEAN_MOTION": 1.86232281, "ECCENTRICITY": 0.00039569, "INCLINATION": 54.2524, "RA_OF_ASC_NODE": 306.3307, "ARG_OF_PERICENTER": 20.2527, "MEAN_ANOMALY": 339.7508, "EPHEMERIS_TYPE": 0, "CLASSIFICATION_TYPE": "U", "NORAD_CAT_ID": 43648, "ELEMENT_SET_NO": 999, "REV_AT_EPOCH": 4880, "BSTAR": 0, "MEAN_MOTION_DOT": -8.5e-07, "MEAN_MOTION_DDOT": 0}, "tle": {"line1": "1 43648U 18078B   25352.19741378 -.00000085  00000+0  00000+0 0  9998", "line2": "2 43648  54.2524 306.3307 0003956  20.2527 339.7508  1.86232281 48800"}}, "geometry": {"type": "Point", "coordinates": [-111.06864597138944, -49.471015693062924]}}, {"type": "Feature", "properties": {"norad_id": 43683, "name": "BEIDOU-3 G1 (C59)", "group": "beidou", "lat": 0.8984527442771141, "lon": 122.22790019574614, "alt_km": 35780.80454153143, "timestamp": "2025-12-19T16:54:44.526665+00:00", "meta": {"OBJECT_NAME": "BEIDOU-3 G1 (C59)", "OBJECT_ID": "2018-085A", "EPOCH": "2025-12-19T07:04:55.947936", "MEAN_MOTION": 1.00268946, "ECCENTRICITY": 0.00016197, "INCLINATION": 2.6236, "RA_OF_ASC_NODE": 102.7738, "ARG_OF_PERICENTER": 47.741, "MEAN_ANOMALY": 183.8957, "EPHEMERIS_TYPE": 0, "CLASSIFICATION_TYPE": "U", "NORAD_CAT_ID": 43683, "ELEMENT_SET_NO": 999, "REV_AT_EPOCH": 2625, "BSTAR": 0, "MEAN_MOTION_DOT": -2.55e-06, "MEAN_MOTION_DDOT": 0}, "tle": {"line1": "1 43683U 18085A   25353.29509199 -.00000255  00000+0  00000+0 0  9999", "line2": "2 43683   2.6236 102.7738 0001619  47.7410 183.8957  1.00268946 26255"}}, "geometry": {"type": "Point", "coordinates": [122.22790019574614, 0.8984527442771141]}}, {"type": "Feature", "properties": {"norad_id": 43706, "name": "BEIDOU-3 M17 (C36)", "group": "beidou", "lat": -3.3418266860120083, "lon": 10.810466094014131, "alt_km": 21538.45369009342, "timestamp": "2025-12-19T16:54:44.526678+00:00", "meta": {"OBJECT_NAME": "BEIDOU-3 M17 (C36)", "OBJECT_ID": "2018-093A", "EPOCH": "2025-12-15T07:56:44.520576", "MEAN_MOTION": 1.86228523, "ECCENTRICITY": 0.00061371, "INCLINATION": 54.1729, "RA_OF_ASC_NODE": 188.5337, "ARG_OF_PERICENTER": 307.6759, "MEAN_ANOMALY": 184.25, "EPHEMERIS_TYPE": 0, "CLASSIFICATION_TYPE": "U", "NORAD_CAT_ID": 43706, "ELEMENT_SET_NO": 999, "REV_AT_EPOCH": 4811, "BSTAR": 0, "MEAN_MOTION_DOT": 1.13e-06, "MEAN_MOTION_DDOT": 0}, "tle": {"line1": "1 43706U 18093A   25349.33107084  .00000113  00000+0  00000+0 0  9993", "line2": "2 43706  54.1729 188.5337 0006137 307.6759 184.2500  1.86228523 48110"}}, "geometry": {"type": "Point", "coordinates": [10.810466094014131, -3.3418266860120083]}}, {"type": "Feature", "properties": {"norad_id": 43707, "name": "BEIDOU-3 M18 (C37)", "group": "beidou", "lat": -53.56433707961195, "lon": 110.10494673919499, "alt_km": 21530.09033684337, "timestamp": "2025-12-19T16:54:44.526689+00:00", "meta": {"OBJECT_NAME": "BEIDOU-3 M18 (C37)", "OBJECT_ID": "2018-093B", "EPOCH": "2025-12-16T14:33:42.784416", "MEAN_MOTION": 1.8622677, "ECCENTRICITY": 0.00063186, "INCLINATION": 54.1735, "RA_OF_ASC_NODE": 188.4822, "ARG_OF_PERICENTER": 353.2257, "MEAN_ANOMALY": 6.8349, "EPHEMERIS_TYPE": 0, "CLASSIFICATION_TYPE": "U", "NORAD_CAT_ID": 43707, "ELEMENT_SET_NO": 999, "REV_AT_EPOCH": 4813, "BSTAR": 0, "MEAN_MOTION_DOT": 1.15e-06, "MEAN_MOTION_DDOT": 0}, "tle": {"line1": "1 43707U 18093B   25350.60674519  .00000115  00000+0  00000+0 0  9990", "line2": "2 43707  54.1735 188.4822 0006318 353.2257   6.8349  1.86226770 48131"}}, "geometry": {"type": "Point", "coordinates": [110.10494673919499, -53.56433707961195]}}, {"type": "Feature", "properties": {"norad_id": 44231, "name": "BEIDOU-2 G8 (C01)", "group": "beidou", "lat": 1.3430675932483103, "lon": 126.69268378218631, "alt_km": 35815.3917721491, "timestamp": "2025-12-19T16:54:44.526701+00:00", "meta": {"OBJECT_NAME": "BEIDOU-2 G8 (C01)", "OBJECT_ID": "2019-027A", "EPOCH": "2025-12-19T07:06:10.829088", "MEAN_MOTION": 1.00276635, "ECCENTRICITY": 0.00081822, "INCLINATION": 1.6779, "RA_OF_ASC_NODE": 74.7271, "ARG_OF_PERICENTER": 258.4775, "MEAN_ANOMALY": 5.9166, "EPHEMERIS_TYPE": 0, "CLASSIFICATION_TYPE": "U", "NORAD_CAT_ID": 44231, "ELEMENT_SET_NO": 999, "REV_AT_EPOCH": 2427, "BSTAR": 0, "MEAN_MOTION_DOT": -2.24e-06, "MEAN_MOTION_DDOT": 0}, "tle": {"line1": "1 44231U 19027A   25353.29595867 -.00000224  00000+0  00000+0 0  9999", "line2": "2 44231   1.6779  74.7271 0008182 258.4775   5.9166  1.00276635 24273"}}, "geometry": {"type": "Point", "coordinates": [126.69268378218631, 1.3430675932483103]}}, {"type": "Feature", "properties": {"norad_id": 44337, "name": "BEIDOU-3 IGSO-2 (C39)", "group": "beidou", "lat": -44.30584798776401, "lon": 117.64201385730051, "alt_km": 35817.87515828512, "timestamp": "2025-12-19T16:54:44.526713+00:00", "meta": {"OBJECT_NAME": "BEIDOU-3 IGSO-2 (C39)", "OBJECT_ID": "2019-035A", "EPOCH": "2025-12-18T20:43:04.464768", "MEAN_MOTION": 1.00269481, "ECCENTRICITY": 0.00375097, "INCLINATION": 55.2274, "RA_OF_ASC_NODE": 160.4476, "ARG_OF_PERICENTER": 202.2689, "MEAN_ANOMALY": 155.2054, "EPHEMERIS_TYPE": 0, "CLASSIFICATION_TYPE": "U", "NORAD_CAT_ID": 44337, "ELEMENT_SET_NO": 999, "REV_AT_EPOCH": 2385, "BSTAR": 0, "MEAN_MOTION_DOT": -5.3e-07, "MEAN_MOTION_DDOT": 0}, "tle": {"line1": "1 44337U 19035A   25352.86324612 -.00000053  00000+0  00000+0 0  9995", "line2": "2 44337  55.2274 160.4476 0037509 202.2689 155.2054  1.00269481 23850"}}, "geometry": {"type": "Point", "coordinates": [117.64201385730051, -44.30584798776401]}}, {"type": "Feature", "properties": {"norad_id": 44542, "name": "BEIDOU-3 M24 (C46)", "group": "beidou", "lat": -38.14271606221989, "lon": 43.04516056249208, "alt_km": 21557.262663980804, "timestamp": "2025-12-19T16:54:44.526725+00:00", "meta": {"OBJECT_NAME": "BEIDOU-3 M24 (C46)", "OBJECT_ID": "2019-061A", "EPOCH": "2025-12-18T19:48:47.972736", "MEAN_MOTION": 1.86229393, "ECCENTRICITY": 0.00096105, "INCLINATION": 54.4002, "RA_OF_ASC_NODE": 188.8106, "ARG_OF_PERICENTER": 25.1866, "MEAN_ANOMALY": 334.925, "EPHEMERIS_TYPE": 0, "CLASSIFICATION_TYPE": "U", "NORAD_CAT_ID": 44542, "ELEMENT_SET_NO": 999, "REV_AT_EPOCH": 4243, "BSTAR": 0, "MEAN_MOTION_DOT": 1.06e-06, "MEAN_MOTION_DDOT": 0}, "tle": {"line1": "1 44542U 19061A   25352.82555524  .00000106  00000+0  00000+0 0  9994", "line2": "2 44542  54.4002 188.8106 0009610  25.1866 334.9250  1.86229393 42434"}}, "geometry": {"type": "Point", "coordinates": [43.04516056249208, -38.14271606221989]}}]}